[{"OBJECT_NAME":"KENT RIDGE 1","OBJECT_ID":"2015-077B","EPOCH":"2026-03-06T22:01:58.266336","MEAN_MOTION":15.22425851,"ECCENTRICITY":0.0008439,"INCLINATION":14.9802,"RA_OF_ASC_NODE":306.1766,"ARG_OF_PERICENTER":237.6438,"MEAN_ANOMALY":122.3067,"EPHEMERIS_TYPE":0,"CLASSIFICATION_TYPE":"U","NORAD_CAT_ID":41167,"ELEMENT_SET_NO":999,"REV_AT_EPOCH":56548,"BSTAR":0.0002264,"MEAN_MOTION_DOT":6.163e-5,"MEAN_MOTION_DDOT":0},{"OBJECT_NAME":"GAOFEN-4","OBJECT_ID":"2015-083A","EPOCH":"2026-03-07T00:43:43.834944","MEAN_MOTION":1.0027275,"ECCENTRICITY":0.0003821,"INCLINATION":0.3867,"RA_OF_ASC_NODE":83.855,"ARG_OF_PERICENTER":83.0136,"MEAN_ANOMALY":114.4922,"EPHEMERIS_TYPE":0,"CLASSIFICATION_TYPE":"U","NORAD_CAT_ID":41194,"ELEMENT_SET_NO":999,"REV_AT_EPOCH":3750,"BSTAR":0,"MEAN_MOTION_DOT":-3.37e-6,"MEAN_MOTION_DDOT":0},{"OBJECT_NAME":"JASON-3","OBJECT_ID":"2016-002A","EPOCH":"2026-03-07T04:15:26.586720","MEAN_MOTION":12.8762571,"ECCENTRICITY":0.0007791,"INCLINATION":66.0448,"RA_OF_ASC_NODE":340.3028,"ARG_OF_PERICENTER":277.0221,"MEAN_ANOMALY":82.9912,"EPHEMERIS_TYPE":0,"CLASSIFICATION_TYPE":"U","NORAD_CAT_ID":41240,"ELEMENT_SET_NO":999,"REV_AT_EPOCH":47411,"BSTAR":0.00015596,"MEAN_MOTION_DOT":-2.3e-7,"MEAN_MOTION_DDOT":0},{"OBJECT_NAME":"SENTINEL-3A","OBJECT_ID":"2016-011A","EPOCH":"2026-03-07T04:15:39.278016","MEAN_MOTION":14.26740537,"ECCENTRICITY":0.0001232,"INCLINATION":98.6233,"RA_OF_ASC_NODE":135.0008,"ARG_OF_PERICENTER":99.8198,"MEAN_ANOMALY":260.3122,"EPHEMERIS_TYPE":0,"CLASSIFICATION_TYPE":"U","NORAD_CAT_ID":41335,"ELEMENT_SET_NO":999,"REV_AT_EPOCH":52351,"BSTAR":7.7103e-5,"MEAN_MOTION_DOT":1.43e-6,"MEAN_MOTION_DDOT":0},{"OBJECT_NAME":"ZIYUAN 3-02 (ZY 3-02)","OBJECT_ID":"2016-033A","EPOCH":"2026-03-07T04:12:26.864352","MEAN_MOTION":15.21507758,"ECCENTRICITY":0.0011174,"INCLINATION":97.3901,"RA_OF_ASC_NODE":143.8757,"ARG_OF_PERICENTER":308.9799,"MEAN_ANOMALY":51.0441,"EPHEMERIS_TYPE":0,"CLASSIFICATION_TYPE":"U","NORAD_CAT_ID":41556,"ELEMENT_SET_NO":999,"REV_AT_EPOCH":54247,"BSTAR":0.00039955,"MEAN_MOTION_DOT":8.941e-5,"MEAN_MOTION_DDOT":0},{"OBJECT_NAME":"CARTOSAT-2C","OBJECT_ID":"2016-040A","EPOCH":"2026-03-07T04:02:49.615584","MEAN_MOTION":15.19193306,"ECCENTRICITY":0.0010215,"INCLINATION":97.4611,"RA_OF_ASC_NODE":127.4833,"ARG_OF_PERICENTER":128.7776,"MEAN_ANOMALY":231.4373,"EPHEMERIS_TYPE":0,"CLASSIFICATION_TYPE":"U","NORAD_CAT_ID":41599,"ELEMENT_SET_NO":999,"REV_AT_EPOCH":53822,"BSTAR":0.00029063,"MEAN_MOTION_DOT":6.056e-5,"MEAN_MOTION_DDOT":0},{"OBJECT_NAME":"SKYSAT-C1","OBJECT_ID":"2016-040C","EPOCH":"2026-03-07T02:13:05.113920","MEAN_MOTION":15.34444065,"ECCENTRICITY":0.0003737,"INCLINATION":96.9702,"RA_OF_ASC_NODE":103.4028,"ARG_OF_PERICENTER":58.7584,"MEAN_ANOMALY":301.4025,"EPHEMERIS_TYPE":0,"CLASSIFICATION_TYPE":"U","NORAD_CAT_ID":41601,"ELEMENT_SET_NO":999,"REV_AT_EPOCH":54220,"BSTAR":0.00032337,"MEAN_MOTION_DOT":0.0001072,"MEAN_MOTION_DDOT":0},{"OBJECT_NAME":"LAPAN-A3","OBJECT_ID":"2016-040E","EPOCH":"2026-03-07T03:38:32.911584","MEAN_MOTION":15.32354105,"ECCENTRICITY":0.0011344,"INCLINATION":97.1483,"RA_OF_ASC_NODE":65.7134,"ARG_OF_PERICENTER":31.3299,"MEAN_ANOMALY":328.8617,"EPHEMERIS_TYPE":0,"CLASSIFICATION_TYPE":"U","NORAD_CAT_ID":41603,"ELEMENT_SET_NO":999,"REV_AT_EPOCH":53918,"BSTAR":0.00018887,"MEAN_MOTION_DOT":5.836e-5,"MEAN_MOTION_DDOT":0},{"OBJECT_NAME":"GAOFEN-3","OBJECT_ID":"2016-049A","EPOCH":"2026-03-07T04:01:45.058368","MEAN_MOTION":14.42215604,"ECCENTRICITY":0.0001661,"INCLINATION":98.405,"RA_OF_ASC_NODE":75.4782,"ARG_OF_PERICENTER":92.6074,"MEAN_ANOMALY":267.5306,"EPHEMERIS_TYPE":0,"CLASSIFICATION_TYPE":"U","NORAD_CAT_ID":41727,"ELEMENT_SET_NO":999,"REV_AT_EPOCH":50394,"BSTAR":4.7243e-5,"MEAN_MOTION_DOT":1.12e-6,"MEAN_MOTION_DDOT":0},{"OBJECT_NAME":"SKYSAT-C4","OBJECT_ID":"2016-058B","EPOCH":"2026-03-07T03:07:11.694144","MEAN_MOTION":15.45260395,"ECCENTRICITY":8.12e-5,"INCLINATION":96.929,"RA_OF_ASC_NODE":92.35,"ARG_OF_PERICENTER":103.5796,"MEAN_ANOMALY":256.5544,"EPHEMERIS_TYPE":0,"CLASSIFICATION_TYPE":"U","NORAD_CAT_ID":41771,"ELEMENT_SET_NO":999,"REV_AT_EPOCH":52969,"BSTAR":0.00039466,"MEAN_MOTION_DOT":0.00018709,"MEAN_MOTION_DDOT":0},{"OBJECT_NAME":"SKYSAT-C5","OBJECT_ID":"2016-058C","EPOCH":"2026-03-07T02:04:16.853952","MEAN_MOTION":15.34226323,"ECCENTRICITY":0.0001794,"INCLINATION":97.0615,"RA_OF_ASC_NODE":111.2633,"ARG_OF_PERICENTER":83.9692,"MEAN_ANOMALY":276.1757,"EPHEMERIS_TYPE":0,"CLASSIFICATION_TYPE":"U","NORAD_CAT_ID":41772,"ELEMENT_SET_NO":999,"REV_AT_EPOCH":52809,"BSTAR":0.0003054,"MEAN_MOTION_DOT":0.00010047,"MEAN_MOTION_DDOT":0},{"OBJECT_NAME":"SKYSAT-C2","OBJECT_ID":"2016-058D","EPOCH":"2026-03-07T01:02:50.010432","MEAN_MOTION":15.39611123,"ECCENTRICITY":0.0005171,"INCLINATION":97.0281,"RA_OF_ASC_NODE":92.0991,"ARG_OF_PERICENTER":74.195,"MEAN_ANOMALY":285.9866,"EPHEMERIS_TYPE":0,"CLASSIFICATION_TYPE":"U","NORAD_CAT_ID":41773,"ELEMENT_SET_NO":999,"REV_AT_EPOCH":52932,"BSTAR":0.00035012,"MEAN_MOTION_DOT":0.00013727,"MEAN_MOTION_DDOT":0},{"OBJECT_NAME":"SKYSAT-C3","OBJECT_ID":"2016-058E","EPOCH":"2026-03-07T00:53:56.293440","MEAN_MOTION":15.48169891,"ECCENTRICITY":0.0001642,"INCLINATION":96.9175,"RA_OF_ASC_NODE":101.0213,"ARG_OF_PERICENTER":106.5729,"MEAN_ANOMALY":253.5703,"EPHEMERIS_TYPE":0,"CLASSIFICATION_TYPE":"U","NORAD_CAT_ID":41774,"ELEMENT_SET_NO":999,"REV_AT_EPOCH":53028,"BSTAR":0.00045006,"MEAN_MOTION_DOT":0.00023611,"MEAN_MOTION_DDOT":0},{"OBJECT_NAME":"ALSAT-1B","OBJECT_ID":"2016-059C","EPOCH":"2026-03-07T03:45:12.299904","MEAN_MOTION":14.72185474,"ECCENTRICITY":0.0008948,"INCLINATION":97.78,"RA_OF_ASC_NODE":79.3094,"ARG_OF_PERICENTER":185.6139,"MEAN_ANOMALY":174.497,"EPHEMERIS_TYPE":0,"CLASSIFICATION_TYPE":"U","NORAD_CAT_ID":41785,"ELEMENT_SET_NO":999,"REV_AT_EPOCH":50556,"BSTAR":0.0001271,"MEAN_MOTION_DOT":7.54e-6,"MEAN_MOTION_DDOT":0},{"OBJECT_NAME":"PATHFINDER 1","OBJECT_ID":"2016-059E","EPOCH":"2026-03-07T00:04:36.163776","MEAN_MOTION":14.67511944,"ECCENTRICITY":0.0028713,"INCLINATION":97.8176,"RA_OF_ASC_NODE":69.899,"ARG_OF_PERICENTER":169.2738,"MEAN_ANOMALY":190.9086,"EPHEMERIS_TYPE":0,"CLASSIFICATION_TYPE":"U","NORAD_CAT_ID":41787,"ELEMENT_SET_NO":999,"REV_AT_EPOCH":50472,"BSTAR":0.00017297,"MEAN_MOTION_DOT":9.4e-6,"MEAN_MOTION_DDOT":0},{"OBJECT_NAME":"SCATSAT 1","OBJECT_ID":"2016-059H","EPOCH":"2026-03-07T03:37:32.614752","MEAN_MOTION":14.79252218,"ECCENTRICITY":0.0054228,"INCLINATION":98.1309,"RA_OF_ASC_NODE":128.8331,"ARG_OF_PERICENTER":215.7723,"MEAN_ANOMALY":143.9851,"EPHEMERIS_TYPE":0,"CLASSIFICATION_TYPE":"U","NORAD_CAT_ID":41790,"ELEMENT_SET_NO":999,"REV_AT_EPOCH":8650,"BSTAR":0.00023787,"MEAN_MOTION_DOT":1.754e-5,"MEAN_MOTION_DDOT":0},{"OBJECT_NAME":"GOKTURK 1A","OBJECT_ID":"2016-073A","EPOCH":"2026-03-07T04:29:27.095424","MEAN_MOTION":14.62746628,"ECCENTRICITY":0.0001369,"INCLINATION":98.1368,"RA_OF_ASC_NODE":322.3982,"ARG_OF_PERICENTER":78.5935,"MEAN_ANOMALY":281.542,"EPHEMERIS_TYPE":0,"CLASSIFICATION_TYPE":"U","NORAD_CAT_ID":41875,"ELEMENT_SET_NO":999,"REV_AT_EPOCH":49391,"BSTAR":0.00013345,"MEAN_MOTION_DOT":6.33e-6,"MEAN_MOTION_DDOT":0}]
