KENT RIDGE 1            
1 41167U 15077B   26065.91803549  .00006163  00000+0  22640-3 0  9999
2 41167  14.9802 306.1766 0008439 237.6438 122.3067 15.22425851565485
GAOFEN-4                
1 41194U 15083A   26066.03036846 -.00000337  00000+0  00000+0 0  9998
2 41194   0.3867  83.8550 0003821  83.0136 114.4922  1.00272750 37501
JASON-3                 
1 41240U 16002A   26066.17739105 -.00000023  00000+0  15596-3 0  9997
2 41240  66.0448 340.3028 0007791 277.0221  82.9912 12.87625710474113
SENTINEL-3A             
1 41335U 16011A   26066.17753794  .00000143  00000+0  77103-4 0  9997
2 41335  98.6233 135.0008 0001232  99.8198 260.3122 14.26740537523519
ZIYUAN 3-02 (ZY 3-02)   
1 41556U 16033A   26066.17531093  .00008941  00000+0  39955-3 0  9998
2 41556  97.3901 143.8757 0011174 308.9799  51.0441 15.21507758542474
CARTOSAT-2C             
1 41599U 16040A   26066.16862981  .00006056  00000+0  29063-3 0  9999
2 41599  97.4611 127.4833 0010215 128.7776 231.4373 15.19193306538224
SKYSAT-C1               
1 41601U 16040C   26066.09242030  .00010720  00000+0  32337-3 0  9993
2 41601  96.9702 103.4028 0003737  58.7584 301.4025 15.34444065542206
LAPAN-A3                
1 41603U 16040E   26066.15176981  .00005836  00000+0  18887-3 0  9999
2 41603  97.1483  65.7134 0011344  31.3299 328.8617 15.32354105539184
GAOFEN-3                
1 41727U 16049A   26066.16788262  .00000112  00000+0  47243-4 0  9998
2 41727  98.4050  75.4782 0001661  92.6074 267.5306 14.42215604503943
SKYSAT-C4               
1 41771U 16058B   26066.12999646  .00018709  00000+0  39466-3 0  9991
2 41771  96.9290  92.3500 0000812 103.5796 256.5544 15.45260395529690
SKYSAT-C5               
1 41772U 16058C   26066.08630618  .00010047  00000+0  30540-3 0  9999
2 41772  97.0615 111.2633 0001794  83.9692 276.1757 15.34226323528096
SKYSAT-C2               
1 41773U 16058D   26066.04363438  .00013727  00000+0  35012-3 0  9996
2 41773  97.0281  92.0991 0005171  74.1950 285.9866 15.39611123529328
SKYSAT-C3               
1 41774U 16058E   26066.03745710  .00023611  00000+0  45006-3 0  9990
2 41774  96.9175 101.0213 0001642 106.5729 253.5703 15.48169891530288
ALSAT-1B                
1 41785U 16059C   26066.15639236  .00000754  00000+0  12710-3 0  9990
2 41785  97.7800  79.3094 0008948 185.6139 174.4970 14.72185474505568
PATHFINDER 1            
1 41787U 16059E   26066.00319634  .00000940  00000+0  17297-3 0  9995
2 41787  97.8176  69.8990 0028713 169.2738 190.9086 14.67511944504728
SCATSAT 1               
1 41790U 16059H   26066.15107193  .00001754  00000+0  23787-3 0  9995
2 41790  98.1309 128.8331 0054228 215.7723 143.9851 14.79252218 86508
GOKTURK 1A              
1 41875U 16073A   26066.18711916  .00000633  00000+0  13345-3 0  9996
2 41875  98.1368 322.3982 0001369  78.5935 281.5420 14.62746628493911
